IRIDIUM 171             
1 43929U 19002H   25086.57304520  .00000193  00000+0  62040-4 0  9994
2 43929  86.4052 180.4815 0001873 105.0271 255.1132 14.34213964324944
IRIDIUM 170             
1 43930U 19002J   25087.29701063  .00002805  00000+0  44102-3 0  9999
2 43930  86.6138 179.9448 0002974 112.6775 247.4757 14.72239987333654
IRIDIUM 167             
1 43931U 19002K   25087.19461540  .00000823  00000+0  28689-3 0  9992
2 43931  86.4043 179.9844 0001671  96.9334 263.2052 14.34215132325037
IRIDIUM 181             
1 56726U 23068S   25087.45710836  .00000990  00000+0  28832-3 0  9994
2 56726  86.4485 242.9368 0001776 107.9129 252.2265 14.43287867 98143
IRIDIUM 177             
1 56727U 23068T   25087.21960063  .00004064  00000+0  53111-3 0  9992
2 56727  86.2040 180.5323 0001798 110.0217 250.1198 14.80241314100395
IRIDIUM 174             
1 56728U 23068U   25086.80854434  .00000704  00000+0  89152-4 0  9993
2 56728  86.2043 180.8527 0002544 103.0250 257.1255 14.80197958100336
IRIDIUM 178             
1 56729U 23068V   25086.73547923  .00004469  00000+0  58476-3 0  9994
2 56729  86.6588 211.7962 0002133 105.3102 254.8355 14.80222555100323
IRIDIUM 179             
1 56730U 23068W   25086.86530623  .00004874  00000+0  63838-3 0  9997
2 56730  86.6814 219.3718 0002302  81.8684 278.2799 14.80191832100348
